NORAD_CAT_ID,OBJECT_NAME,OBJECT_TYPE,EPOCH,MEAN_MOTION,ECCENTRICITY,INCLINATION,RA_OF_ASC_NODE,ARG_OF_PERICENTER,MEAN_ANOMALY,BSTAR,MEAN_MOTION_DOT,MEAN_MOTION_DDOT,TLE_LINE0,TLE_LINE1,TLE_LINE2,SEMIMAJOR_AXIS,PERIOD,APOGEE,PERIGEE,DECAYED
53170.0,STARLINK-4095,PAYLOAD,2024-05-04 19:00:18,15.08833579,0.000129,53.2178,304.3184,90.4043,269.7097,0.00011487,1.54e-05,0.0,0 STARLINK-4095,1 53170U 22083AQ  24125.79187861  .00001540  00000-0  11487-3 0  9996,2 53170  53.2178 304.3184 0001290  90.4043 269.7097 15.08833579100324,6917.9,95.438,540.657,538.873,0.0
53170.0,STARLINK-4095,PAYLOAD,2024-05-05 10:54:09,15.08839323,0.0001286,53.2181,301.3447,95.4753,264.6386,0.00013032,1.787e-05,0.0,0 STARLINK-4095,1 53170U 22083AQ  24126.45427622  .00001787  00000-0  13032-3 0  9993,2 53170  53.2181 301.3447 0001286  95.4753 264.6386 15.08839323 99791,6917.882,95.438,540.637,538.858,0.0
53170.0,STARLINK-4095,PAYLOAD,2024-05-05 18:51:04,15.08843879,0.000128,53.2183,299.8586,96.9499,263.1638,0.00011948,1.614e-05,0.0,0 STARLINK-4095,1 53170U 22083AQ  24126.78547411  .00001614  00000-0  11948-3 0  9991,2 53170  53.2183 299.8586 0001280  96.9499 263.1638 15.08843879100478,6917.869,95.437,540.619,538.848,0.0
53170.0,STARLINK-4095,PAYLOAD,2024-05-05 22:01:50,15.08847221,0.0001326,53.2182,299.2631,102.087,258.0271,0.00014816,2.071e-05,0.0,0 STARLINK-4095,1 53170U 22083AQ  24126.91795075  .00002071  00000-0  14816-3 0  9992,2 53170  53.2182 299.2631 0001326 102.0870 258.0271 15.08847221 99866,6917.858,95.437,540.641,538.806,0.0
53170.0,STARLINK-4095,PAYLOAD,2024-05-06 04:23:23,15.08848145,0.0001009,53.2167,298.0712,84.1341,275.9766,0.00010043,1.311e-05,0.0,0 STARLINK-4095,1 53170U 22083AQ  24127.18291038  .00001311  00000-0  10043-3 0  9996,2 53170  53.2167 298.0712 0001009  84.1341 275.9766 15.08848145 99905,6917.855,95.437,540.419,539.022,0.0
53170.0,STARLINK-4095,PAYLOAD,2024-05-06 20:17:14,15.08846432,0.0001265,53.2182,295.0979,81.3078,278.8058,0.00012948,1.774e-05,0.0,0 STARLINK-4095,1 53170U 22083AQ  24127.84531249  .00001774  00000-0  12948-3 0  9999,2 53170  53.2182 295.0979 0001265  81.3078 278.8058 15.08846432100630,6917.861,95.437,540.601,538.851,0.0
53170.0,STARLINK-4095,PAYLOAD,2024-05-07 04:14:11,15.08840083,9.83e-05,53.217,293.612,89.2758,270.8346,0.0001389,1.924e-05,0.0,0 STARLINK-4095,1 53170U 22083AQ  24128.17651624  .00001924  00000-0  13890-3 0  9990,2 53170  53.2170 293.6120 0000983  89.2758 270.8346 15.08840083100680,6917.88,95.438,540.425,539.065,0.0
53170.0,STARLINK-4095,PAYLOAD,2024-05-07 10:35:43,15.08840461,0.0001261,53.2192,292.4247,90.9893,269.1243,6.3618e-05,7.25e-06,0.0,0 STARLINK-4095,1 53170U 22083AQ  24128.44147783  .00000725  00000-0  63618-4 0  9998,2 53170  53.2192 292.4247 0001261  90.9893 269.1243 15.08840461100092,6917.879,95.438,540.616,538.872,0.0
53170.0,STARLINK-4095,PAYLOAD,2024-05-07 16:57:16,15.08840039,0.000124,53.2188,291.2333,91.1065,269.007,-4.3921e-06,-3.58e-06,0.0,0 STARLINK-4095,1 53170U 22083AQ  24128.70644019 -.00000358  00000-0 -43921-5 0  9991,2 53170  53.2188 291.2333 0001240  91.1065 269.0070 15.08840039100134,6917.88,95.438,540.603,538.887,0.0
53170.0,STARLINK-4095,PAYLOAD,2024-05-08 10:26:30,15.08837784,0.0001108,53.2172,287.9631,86.5253,273.5865,5.1379e-05,5.3e-06,0.0,0 STARLINK-4095,1 53170U 22083AQ  24129.43508055  .00000530  00000-0  51379-4 0  9996,2 53170  53.2172 287.9631 0001108  86.5253 273.5865 15.08837784100876,6917.887,95.438,540.519,538.986,0.0
53170.0,STARLINK-4095,PAYLOAD,2024-05-08 16:48:03,15.08844197,0.0001178,53.2171,286.7732,85.9615,274.1511,1.0365e-05,-1.23e-06,0.0,0 STARLINK-4095,1 53170U 22083AQ  24129.70003853 -.00000123  00000-0  10365-4 0  9991,2 53170  53.2171 286.7732 0001178  85.9615 274.1511 15.08844197100282,6917.868,95.437,540.547,538.918,0.0
53170.0,STARLINK-4095,PAYLOAD,2024-05-09 03:55:44,15.08850036,0.0001261,53.2176,284.6915,86.0154,274.0982,6.0503e-05,6.75e-06,0.0,0 STARLINK-4095,1 53170U 22083AQ  24130.16371294  .00000675  00000-0  60503-4 0  9990,2 53170  53.2176 284.6915 0001261  86.0154 274.0982 15.08850036100987,6917.85,95.437,540.587,538.842,0.0
53170.0,STARLINK-4095,PAYLOAD,2024-05-09 10:17:17,15.08840835,0.0001241,53.2174,283.5024,89.6762,270.4372,0.00015982,2.257e-05,0.0,0 STARLINK-4095,1 53170U 22083AQ  24130.42867719  .00002257  00000-0  15982-3 0  9999,2 53170  53.2174 283.5024 0001241  89.6762 270.4372 15.08840835101021,6917.878,95.438,540.601,538.884,0.0
53170.0,STARLINK-4095,PAYLOAD,2024-05-09 15:03:26,15.08844119,0.0001208,53.2181,282.6108,90.5512,269.5618,0.00019195,2.769e-05,0.0,0 STARLINK-4095,1 53170U 22083AQ  24130.62739552  .00002769  00000-0  19195-3 0  9992,2 53170  53.2181 282.6108 0001208  90.5512 269.5618 15.08844119100423,6917.868,95.437,540.568,538.897,0.0
53170.0,STARLINK-4095,PAYLOAD,2024-05-09 16:38:49,15.0884953,0.0001125,53.2179,282.3127,91.982,268.1301,0.00018078,2.591e-05,0.0,0 STARLINK-4095,1 53170U 22083AQ  24130.69363197  .00002591  00000-0  18078-3 0  9999,2 53170  53.2179 282.3127 0001125  91.9820 268.1301 15.08849530100430,6917.851,95.437,540.495,538.938,0.0
53170.0,STARLINK-4095,PAYLOAD,2024-05-10 13:18:51,15.08842565,0.0001232,53.2172,278.4471,90.4883,269.625,0.00016448,2.331e-05,0.0,0 STARLINK-4095,1 53170U 22083AQ  24131.55475879  .00002331  00000-0  16448-3 0  9997,2 53170  53.2172 278.4471 0001232  90.4883 269.6250 15.08842565101197,6917.873,95.437,540.59,538.885,0.0
53170.0,STARLINK-4095,PAYLOAD,2024-05-10 14:54:14,15.08843435,0.0001238,53.2173,278.1498,90.7819,269.3315,0.00016976,2.415e-05,0.0,0 STARLINK-4095,1 53170U 22083AQ  24131.62099813  .00002415  00000-0  16976-3 0  9994,2 53170  53.2173 278.1498 0001238  90.7819 269.3315 15.08843435100579,6917.87,95.437,540.591,538.878,0.0
53170.0,STARLINK-4095,PAYLOAD,2024-05-10 19:40:23,15.08855175,0.000126,53.2176,277.2577,78.0003,282.113,0.00027277,4.058e-05,0.0,0 STARLINK-4095,1 53170U 22083AQ  24131.81971274  .00004058  00000-0  27277-3 0  9996,2 53170  53.2176 277.2577 0001260  78.0003 282.1130 15.08855175101235,6917.834,95.437,540.571,538.827,0.0
53170.0,STARLINK-4095,PAYLOAD,2024-05-11 13:09:37,15.08835632,0.0001997,53.2175,273.9863,23.6569,336.4515,-0.00028311,-4.791e-05,0.0,0 STARLINK-4095,1 53170U 22083AQ  24132.54834914 -.00004791  00000-0 -28311-3 0  9992,2 53170  53.2175 273.9863 0001997  23.6569 336.4515 15.08835632101343,6917.894,95.438,541.14,538.377,0.0
53170.0,STARLINK-4095,PAYLOAD,2024-05-11 16:20:23,15.08853323,0.0001301,53.2179,273.3921,100.6845,259.4293,0.00016977,2.416e-05,0.0,0 STARLINK-4095,1 53170U 22083AQ  24132.68082734  .00002416  00000-0  16977-3 0  9997,2 53170  53.2179 273.3921 0001301 100.6845 259.4293 15.08853323101364,6917.84,95.437,540.605,538.805,0.0
53170.0,STARLINK-4095,PAYLOAD,2024-05-12 01:52:42,15.08826766,8.14e-05,53.218,271.6057,62.876,297.2315,-0.00042427,-7.031e-05,0.0,0 STARLINK-4095,1 53170U 22083AQ  24133.07827141 -.00007031  00000-0 -42427-3 0  9999,2 53170  53.2180 271.6057 0000814  62.8760 297.2315 15.08826766101423,6917.921,95.438,540.349,539.223,0.0
53170.0,STARLINK-4095,PAYLOAD,2024-05-12 13:00:27,15.08793235,0.0001428,53.2178,269.5271,91.3911,268.7244,-0.00049908,-8.212e-05,0.0,0 STARLINK-4095,1 53170U 22083AQ  24133.54198859 -.00008212  00000-0 -49908-3 0  9991,2 53170  53.2178 269.5271 0001428  91.3911 268.7244 15.08793235101496,6918.023,95.441,540.876,538.9,0.0
53170.0,STARLINK-4095,PAYLOAD,2024-05-12 14:35:51,15.08784149,0.0001689,53.2181,269.2297,104.5556,255.5624,-0.00032863,-5.506e-05,0.0,0 STARLINK-4095,1 53170U 22083AQ  24133.60822984 -.00005506  00000-0 -32863-3 0  9996,2 53170  53.2181 269.2297 0001689 104.5556 255.5624 15.08784149100877,6918.051,95.441,541.085,538.748,0.0
53170.0,STARLINK-4095,PAYLOAD,2024-05-12 16:11:14,15.08787722,0.0001586,53.2175,268.9335,93.7362,266.3812,-5.7495e-05,-1.201e-05,0.0,0 STARLINK-4095,1 53170U 22083AQ  24133.67447445 -.00001201  00000-0 -57495-4 0  9995,2 53170  53.2175 268.9335 0001586  93.7362 266.3812 15.08787722100889,6918.04,95.441,541.002,538.808,0.0
53170.0,STARLINK-4095,PAYLOAD,2024-05-13 01:43:34,15.08801272,0.0001201,53.2181,267.1479,91.9433,268.1697,0.0010474,0.00016403,0.0,0 STARLINK-4095,1 53170U 22083AQ  24134.07192743  .00016403  00000-0  10474-2 0  9990,2 53170  53.2181 267.1479 0001201  91.9433 268.1697 15.08801272101574,6917.999,95.44,540.695,539.033,0.0
53170.0,STARLINK-4095,PAYLOAD,2024-05-13 08:05:08,15.08814571,9.04e-05,53.2173,265.9568,77.8677,282.2416,0.0020495,0.00032458,0.0,0 STARLINK-4095,1 53170U 22083AQ  24134.33689835  .00032458  00000-0  20495-2 0  9994,2 53170  53.2173 265.9568 0000904  77.8677 282.2416 15.08814571100988,6917.958,95.439,540.448,539.198,0.0
53170.0,STARLINK-4095,PAYLOAD,2024-05-13 17:37:25,15.08854525,0.0001285,53.2173,264.1744,75.4243,284.6892,0.0011043,0.00017338,0.0,0 STARLINK-4095,1 53170U 22083AQ  24134.73432859  .00017338  00000-0  11043-2 0  9999,2 53170  53.2173 264.1744 0001285  75.4243 284.6892 15.08854525101675,6917.836,95.437,540.59,538.812,0.0
53170.0,STARLINK-4095,PAYLOAD,2024-05-15 01:25:05,15.08910543,0.0001289,53.2161,258.2269,69.4607,290.6523,0.0014194,0.00022418,0.0,0 STARLINK-4095,1 53170U 22083AQ  24136.05908970  .00022418  00000-0  14194-2 0  9993,2 53170  53.2161 258.2269 0001289  69.4607 290.6523 15.08910543101872,6917.665,95.433,540.421,538.638,0.0
53170.0,STARLINK-4095,PAYLOAD,2024-05-15 12:32:46,15.08866635,0.0001712,53.2134,256.1447,80.5573,279.5613,0.00076603,0.00011933,0.0,0 STARLINK-4095,1 53170U 22083AQ  24136.52276440  .00011933  00000-0  76603-3 0  9999,2 53170  53.2134 256.1447 0001712  80.5573 279.5613 15.08866635101940,6917.799,95.436,540.848,538.48,0.0
53170.0,STARLINK-4095,PAYLOAD,2024-05-15 14:08:09,15.08867108,0.0001735,53.2189,255.8507,74.5738,285.5445,0.0007799,0.00012155,0.0,0 STARLINK-4095,1 53170U 22083AQ  24136.58900401  .00012155  00000-0  77990-3 0  9993,2 53170  53.2189 255.8507 0001735  74.5738 285.5445 15.08867108101322,6917.798,95.436,540.863,538.462,0.0
